[{"OBJECT_NAME":"CUTE-1.7+APD II (CO-65)","OBJECT_ID":"2008-021C","EPOCH":"2026-04-25T22:28:24.033792","MEAN_MOTION":15.08945436,"ECCENTRICITY":0.00082642,"INCLINATION":97.8257,"RA_OF_ASC_NODE":96.2988,"ARG_OF_PERICENTER":194.5101,"MEAN_ANOMALY":165.5891,"EPHEMERIS_TYPE":0,"CLASSIFICATION_TYPE":"U","NORAD_CAT_ID":32785,"ELEMENT_SET_NO":999,"REV_AT_EPOCH":97731,"BSTAR":0.00039405832,"MEAN_MOTION_DOT":6.159e-5,"MEAN_MOTION_DDOT":0},{"OBJECT_NAME":"SEEDS II (CO-66)","OBJECT_ID":"2008-021J","EPOCH":"2026-04-25T22:36:34.098048","MEAN_MOTION":15.30926157,"ECCENTRICITY":0.00049533,"INCLINATION":97.7532,"RA_OF_ASC_NODE":111.4231,"ARG_OF_PERICENTER":115.6257,"MEAN_ANOMALY":244.5496,"EPHEMERIS_TYPE":0,"CLASSIFICATION_TYPE":"U","NORAD_CAT_ID":32791,"ELEMENT_SET_NO":999,"REV_AT_EPOCH":97929,"BSTAR":0.00071587552,"MEAN_MOTION_DOT":0.00021355,"MEAN_MOTION_DDOT":0},{"OBJECT_NAME":"YUBILEINY (RS30)","OBJECT_ID":"2008-025A","EPOCH":"2026-04-25T20:50:10.819392","MEAN_MOTION":12.43177709,"ECCENTRICITY":0.00206403,"INCLINATION":82.5071,"RA_OF_ASC_NODE":27.9797,"ARG_OF_PERICENTER":65.9228,"MEAN_ANOMALY":294.4008,"EPHEMERIS_TYPE":0,"CLASSIFICATION_TYPE":"U","NORAD_CAT_ID":32953,"ELEMENT_SET_NO":999,"REV_AT_EPOCH":81319,"BSTAR":-6.2541376e-5,"MEAN_MOTION_DOT":1.0e-8,"MEAN_MOTION_DDOT":0},{"OBJECT_NAME":"KKS-1 (KISEKI)","OBJECT_ID":"2009-002H","EPOCH":"2026-04-25T19:59:19.804704","MEAN_MOTION":14.82983921,"ECCENTRICITY":0.00093047,"INCLINATION":98.119,"RA_OF_ASC_NODE":37.4518,"ARG_OF_PERICENTER":98.1614,"MEAN_ANOMALY":262.0655,"EPHEMERIS_TYPE":0,"CLASSIFICATION_TYPE":"U","NORAD_CAT_ID":33499,"ELEMENT_SET_NO":999,"REV_AT_EPOCH":92843,"BSTAR":0.00018342459,"MEAN_MOTION_DOT":1.435e-5,"MEAN_MOTION_DDOT":0},{"OBJECT_NAME":"SWISSCUBE","OBJECT_ID":"2009-051B","EPOCH":"2026-04-25T16:34:30.213408","MEAN_MOTION":14.62374931,"ECCENTRICITY":0.00074219,"INCLINATION":98.4066,"RA_OF_ASC_NODE":22.6611,"ARG_OF_PERICENTER":26.1773,"MEAN_ANOMALY":333.9801,"EPHEMERIS_TYPE":0,"CLASSIFICATION_TYPE":"U","NORAD_CAT_ID":35932,"ELEMENT_SET_NO":999,"REV_AT_EPOCH":88148,"BSTAR":0.00019043956,"MEAN_MOTION_DOT":9.13e-6,"MEAN_MOTION_DDOT":0},{"OBJECT_NAME":"BEESAT-1","OBJECT_ID":"2009-051C","EPOCH":"2026-04-25T17:47:45.157632","MEAN_MOTION":14.61630477,"ECCENTRICITY":0.00061599,"INCLINATION":98.3995,"RA_OF_ASC_NODE":22.4572,"ARG_OF_PERICENTER":40.8365,"MEAN_ANOMALY":319.3296,"EPHEMERIS_TYPE":0,"CLASSIFICATION_TYPE":"U","NORAD_CAT_ID":35933,"ELEMENT_SET_NO":999,"REV_AT_EPOCH":88152,"BSTAR":0.0001638631,"MEAN_MOTION_DOT":7.66e-6,"MEAN_MOTION_DDOT":0},{"OBJECT_NAME":"ITUPSAT1","OBJECT_ID":"2009-051E","EPOCH":"2026-04-25T16:28:42.540672","MEAN_MOTION":14.60357466,"ECCENTRICITY":0.0008497,"INCLINATION":98.4081,"RA_OF_ASC_NODE":21.6484,"ARG_OF_PERICENTER":47.9628,"MEAN_ANOMALY":312.2293,"EPHEMERIS_TYPE":0,"CLASSIFICATION_TYPE":"U","NORAD_CAT_ID":35935,"ELEMENT_SET_NO":999,"REV_AT_EPOCH":88107,"BSTAR":0.00015487716,"MEAN_MOTION_DOT":7.0e-6,"MEAN_MOTION_DDOT":0},{"OBJECT_NAME":"XIWANG-1 (HOPE-1)","OBJECT_ID":"2009-072B","EPOCH":"2026-04-25T21:07:54.513984","MEAN_MOTION":13.16436689,"ECCENTRICITY":0.00075575,"INCLINATION":100.3988,"RA_OF_ASC_NODE":70.5582,"ARG_OF_PERICENTER":358.5441,"MEAN_ANOMALY":1.5648,"EPHEMERIS_TYPE":0,"CLASSIFICATION_TYPE":"U","NORAD_CAT_ID":36122,"ELEMENT_SET_NO":999,"REV_AT_EPOCH":78612,"BSTAR":-0.0007442828,"MEAN_MOTION_DOT":-3.29e-6,"MEAN_MOTION_DDOT":0},{"OBJECT_NAME":"O/OREOS (USA 219)","OBJECT_ID":"2010-062C","EPOCH":"2026-04-25T14:54:06.782112","MEAN_MOTION":14.93526406,"ECCENTRICITY":0.00142737,"INCLINATION":71.9703,"RA_OF_ASC_NODE":199.3874,"ARG_OF_PERICENTER":174.5038,"MEAN_ANOMALY":185.6292,"EPHEMERIS_TYPE":0,"CLASSIFICATION_TYPE":"U","NORAD_CAT_ID":37224,"ELEMENT_SET_NO":999,"REV_AT_EPOCH":10879,"BSTAR":0.0001816964,"MEAN_MOTION_DOT":1.855e-5,"MEAN_MOTION_DDOT":0},{"OBJECT_NAME":"JUGNU","OBJECT_ID":"2011-058B","EPOCH":"2026-04-25T17:24:17.592768","MEAN_MOTION":14.13760293,"ECCENTRICITY":0.00184711,"INCLINATION":19.9611,"RA_OF_ASC_NODE":267.1515,"ARG_OF_PERICENTER":217.0954,"MEAN_ANOMALY":259.1903,"EPHEMERIS_TYPE":0,"CLASSIFICATION_TYPE":"U","NORAD_CAT_ID":37839,"ELEMENT_SET_NO":999,"REV_AT_EPOCH":75159,"BSTAR":9.1406767e-5,"MEAN_MOTION_DOT":4.43e-6,"MEAN_MOTION_DDOT":0},{"OBJECT_NAME":"SRMSAT","OBJECT_ID":"2011-058D","EPOCH":"2026-04-25T21:56:18.418848","MEAN_MOTION":14.11562971,"ECCENTRICITY":0.00116614,"INCLINATION":19.9735,"RA_OF_ASC_NODE":15.8664,"ARG_OF_PERICENTER":349.2043,"MEAN_ANOMALY":93.3079,"EPHEMERIS_TYPE":0,"CLASSIFICATION_TYPE":"U","NORAD_CAT_ID":37841,"ELEMENT_SET_NO":999,"REV_AT_EPOCH":75042,"BSTAR":8.2292832e-5,"MEAN_MOTION_DOT":4.16e-6,"MEAN_MOTION_DDOT":0},{"OBJECT_NAME":"STRAND-1","OBJECT_ID":"2013-009E","EPOCH":"2026-04-25T18:28:05.720160","MEAN_MOTION":14.37130836,"ECCENTRICITY":0.00092545,"INCLINATION":98.3915,"RA_OF_ASC_NODE":297.2968,"ARG_OF_PERICENTER":34.9138,"MEAN_ANOMALY":325.2654,"EPHEMERIS_TYPE":0,"CLASSIFICATION_TYPE":"U","NORAD_CAT_ID":39090,"ELEMENT_SET_NO":999,"REV_AT_EPOCH":68953,"BSTAR":9.9175096e-5,"MEAN_MOTION_DOT":2.52e-6,"MEAN_MOTION_DDOT":0},{"OBJECT_NAME":"ZACUBE-1 (TSHEPISOSAT)","OBJECT_ID":"2013-066B","EPOCH":"2026-04-25T21:01:04.059552","MEAN_MOTION":15.007441,"ECCENTRICITY":0.00442227,"INCLINATION":97.8121,"RA_OF_ASC_NODE":77.9322,"ARG_OF_PERICENTER":67.9289,"MEAN_ANOMALY":292.6622,"EPHEMERIS_TYPE":0,"CLASSIFICATION_TYPE":"U","NORAD_CAT_ID":39417,"ELEMENT_SET_NO":999,"REV_AT_EPOCH":67288,"BSTAR":0.00045820185,"MEAN_MOTION_DOT":5.869e-5,"MEAN_MOTION_DDOT":0},{"OBJECT_NAME":"GOMX-1","OBJECT_ID":"2013-066Q","EPOCH":"2026-04-25T19:37:30.734976","MEAN_MOTION":14.69258291,"ECCENTRICITY":0.01275501,"INCLINATION":97.6529,"RA_OF_ASC_NODE":319.578,"ARG_OF_PERICENTER":245.5389,"MEAN_ANOMALY":113.247,"EPHEMERIS_TYPE":0,"CLASSIFICATION_TYPE":"U","NORAD_CAT_ID":39430,"ELEMENT_SET_NO":999,"REV_AT_EPOCH":66222,"BSTAR":0.00021358335,"MEAN_MOTION_DOT":1.373e-5,"MEAN_MOTION_DDOT":0},{"OBJECT_NAME":"CUBEBUG-2 (LO-74)","OBJECT_ID":"2013-066AA","EPOCH":"2026-04-25T19:21:22.290336","MEAN_MOTION":14.93386841,"ECCENTRICITY":0.00573282,"INCLINATION":97.8871,"RA_OF_ASC_NODE":64.5922,"ARG_OF_PERICENTER":199.505,"MEAN_ANOMALY":160.3976,"EPHEMERIS_TYPE":0,"CLASSIFICATION_TYPE":"U","NORAD_CAT_ID":39440,"ELEMENT_SET_NO":999,"REV_AT_EPOCH":66917,"BSTAR":0.00035042984,"MEAN_MOTION_DOT":3.736e-5,"MEAN_MOTION_DDOT":0},{"OBJECT_NAME":"FUNCUBE-1 (AO-73)","OBJECT_ID":"2013-066AE","EPOCH":"2026-04-25T20:59:40.120224","MEAN_MOTION":15.08734881,"ECCENTRICITY":0.00375657,"INCLINATION":97.8238,"RA_OF_ASC_NODE":86.2682,"ARG_OF_PERICENTER":24.4509,"MEAN_ANOMALY":335.849,"EPHEMERIS_TYPE":0,"CLASSIFICATION_TYPE":"U","NORAD_CAT_ID":39444,"ELEMENT_SET_NO":999,"REV_AT_EPOCH":67177,"BSTAR":0.00070497685,"MEAN_MOTION_DOT":0.00011188,"MEAN_MOTION_DDOT":0}]
